              M50 Cartesian                         M50 Keplerian  
    -----------------------------------       --------------------------------
     X    =       -3986660.59                 A    =         6779169.94  meter
     Y    =        2612044.08  meter          E    =           .0006898
     Z    =        4815545.86                 I    =           51.99378
     XDOT =      -1473.133581                 Wp   =          100.22232
     YDOT =      -7063.601323  meter/sec      RA   =           94.62306  deg
     ZDOT =       2607.511719                 TA   =          324.20274
                                              MA   =          324.24895
                                              Ha   =            221.206  n.mi
                                              Hp   =            214.295
 
              M50 Cartesian                         J2K Cartesian  
    -----------------------------------       --------------------------------
     X    =      -13079595.12                 X    =        -4038964.83
     Y    =        8569698.43  feet           Y    =         2567170.60  meter
     Z    =       15799034.99                 Z    =         4796052.25
     XDOT =      -4833.115422                 XDOT =       -1406.703401
     YDOT =     -23174.545022  feet/sec       YDOT =       -7079.703201  meter/sec
     ZDOT =       8554.828473                 ZDOT =        2600.517579
 
              TDR Cartesian                         TDR Cartesian  
    -----------------------------------       --------------------------------
     X    =      -12130775.66                 X    =        -3697460.42
     Y    =       10002206.11  feet           Y    =         3048672.42  meter
     Z    =       15713853.80                 Z    =         4789582.64
     XDOT =      -6739.585134                 XDOT =       -2054.225549
     YDOT =     -21590.538644  feet/sec       YDOT =       -6580.796179  meter/sec
     ZDOT =       8525.660797                 ZDOT =        2598.621411
  
  
    The mean element set is posted at the UTC for which position is
    just north of the next ascending node relative to the above
    vector time
 
 
    TWO LINE MEAN ELEMENT SET
  
    ISS
    1 25544U 98067A   16089.55281383  .00016717  00000-0  10270-3 0  9017
    2 25544  51.6395  95.2158 0002376   7.4533 352.6655 15.54270530 32594
  
  
    Satellite: ISS
    Catalog Number: 25544
    Epoch time:      16089.55281383   =   yrday.fracday
    Element set:     901
    Inclination:       51.6395  deg
    RA of node:        95.2158  deg
    Eccentricity:     .0002376     
    Arg of perigee:     7.4533  deg
    Mean anomaly:     352.6655  deg
    Mean motion:   15.54270530  rev/day
    Decay rate:    1.67170E-04  rev/day^2
    Epoch rev:            3259
    Checksum:              315
 
 
    Coasting Arc #3 (Orbit 3273)
    ---------------------------------------
 
    Vector Time (GMT): 2016/090/12:00:00.000
    Vector Time (MET): N/A
    Weight (LBS)     : 919477.5
 
              M50 Cartesian                         M50 Keplerian  
    -----------------------------------       --------------------------------
     X    =        4148610.91                 A    =         6777076.07  meter
     Y    =        -787985.80  meter          E    =           .0015521
     Z    =       -5313980.87                 I    =           51.98909
     XDOT =        575.491878                 Wp   =           76.25804
     YDOT =       7605.670745  meter/sec      RA   =           89.64850  deg
     ZDOT =       -676.595242                 TA   =          187.29164
                                              MA   =          187.31424
                                              Ha   =            221.123  n.mi
                                              Hp   =            214.344
 
              M50 Cartesian                         J2K Cartesian  
    -----------------------------------       --------------------------------
     X    =       13610928.19                 X    =         4182927.18
     Y    =       -2585255.26  feet           Y    =         -741401.87  meter
     Z    =      -17434320.42                 Z    =        -5293744.45
     XDOT =       1888.096714                 XDOT =         493.687227
     YDOT =      24952.988007  feet/sec       YDOT =        7611.648821  meter/sec
     ZDOT =      -2219.800662                 ZDOT =        -673.998991
 
              TDR Cartesian                         TDR Cartesian  
    -----------------------------------       --------------------------------
     X    =       13270904.04                 X    =         4044971.55
     Y    =       -4346043.58  feet           Y    =        -1324674.08  meter
     Z    =      -17346222.95                 Z    =        -5287128.76
     XDOT =       4808.010577                 XDOT =        1465.481624
     YDOT =      23527.079338  feet/sec       YDOT =        7171.053782  meter/sec
     ZDOT =      -2209.857806                 ZDOT =        -673.564659
  
  
    The mean element set is posted at the UTC for which position is
    just north of the next ascending node relative to the above
    vector time
 
 
    TWO LINE MEAN ELEMENT SET
  
    ISS
    1 25544U 98067A   16090.51724511  .00016717  00000-0  10270-3 0  9021
    2 25544  51.6402  90.4077 0002407  11.9889 348.1320 15.54277262 32744
  
  
    Satellite: ISS
    Catalog Number: 25544
    Epoch time:      16090.51724511   =   yrday.fracday
    Element set:     902
    Inclination:       51.6402  deg
    RA of node:        90.4077  deg
    Eccentricity:     .0002407     
    Arg of perigee:    11.9889  deg
    Mean anomaly:     348.1320  deg
    Mean motion:   15.54277262  rev/day
    Decay rate:    1.67170E-04  rev/day^2
    Epoch rev:            3274
    Checksum:              289
 
 
    Coasting Arc #4 (Orbit 3275)
    ---------------------------------------
 
    Vector Time (GMT): 2016/090/14:15:30.000
    Vector Time (MET): N/A
    Weight (LBS)     : 904351.6
 
              M50 Cartesian                         M50 Keplerian  
    -----------------------------------       --------------------------------
     X    =       -3897838.73                 A    =         6778139.84  meter
     Y    =        2326863.95  meter          E    =           .0005261
     Z    =        5029234.91                 I    =           51.99299
     XDOT =      -1684.675196                 Wp   =           98.76495
     YDOT =      -7205.580710  meter/sec      RA   =           89.19212  deg
     ZDOT =       2025.523422                 TA   =          331.64412
                                              MA   =          331.67274
                                              Ha   =            221.139  n.mi
                                              Hp   =            214.231
 
              M50 Cartesian                         J2K Cartesian  
    -----------------------------------       --------------------------------
     X    =      -12788184.81                 X    =        -3947998.56
     Y    =        7634068.09  feet           Y    =         2282995.70  meter
     Z    =       16500114.54                 Z    =         5010178.08
     XDOT =      -5527.149594                 XDOT =       -1613.814553
     YDOT =     -23640.356660  feet/sec       YDOT =       -7224.023487  meter/sec
     ZDOT =       6645.418051                 ZDOT =        2017.512395
 
              TDR Cartesian                         TDR Cartesian  
    -----------------------------------       --------------------------------
     X    =       -4616147.31                 X    =        -1407001.70
     Y    =       14256505.45  feet           Y    =         4345382.86  meter
     Z    =       16416871.88                 Z    =         5003862.55
     XDOT =     -18777.809382                 XDOT =       -5723.476300
     YDOT =     -13703.714728  feet/sec       YDOT =       -4176.892249  meter/sec
     ZDOT =       6611.870238                 ZDOT =        2015.298048
  
  
    The mean element set is posted at the UTC for which position is
    just north of the next ascending node relative to the above
    vector time
 
 
    TWO LINE MEAN ELEMENT SET
  
    ISS
    1 25544U 98067A   16090.64583525  .00016717  00000-0  10270-3 0  9034
    2 25544  51.6401  89.7665 0002499   5.9867 354.1315 15.54317633 32767
  
  
    Satellite: ISS
    Catalog Number: 25544
    Epoch time:      16090.64583525   =   yrday.fracday
    Element set:     903
    Inclination:       51.6401  deg
    RA of node:        89.7665  deg
    Eccentricity:     .0002499     
    Arg of perigee:     5.9867  deg
    Mean anomaly:     354.1315  deg
    Mean motion:   15.54317633  rev/day
    Decay rate:    1.67170E-04  rev/day^2
    Epoch rev:            3276
    Checksum:              325
 
 
    Coasting Arc #5 (Orbit 3290)
    ---------------------------------------
 
    Vector Time (GMT): 2016/091/14:15:30.000
    Vector Time (MET): N/A
    Weight (LBS)     : 904351.6
 
              M50 Cartesian                         M50 Keplerian  
    -----------------------------------       --------------------------------
     X    =        4153102.32                 A    =         6776877.30  meter
     Y    =        -474730.73  meter          E    =           .0015611
     Z    =       -5347344.70                 I    =           51.98671
     XDOT =        807.761850                 Wp   =           80.37227
     YDOT =       7614.599497  meter/sec      RA   =           84.21506  deg
     ZDOT =        -46.230540                 TA   =          189.17439
                                              MA   =          189.20295
                                              Ha   =            221.131  n.mi
                                              Hp   =            214.305
 
